OBJECT_NAME,OBJECT_ID,EPOCH,MEAN_MOTION,ECCENTRICITY,INCLINATION,RA_OF_ASC_NODE,ARG_OF_PERICENTER,MEAN_ANOMALY,EPHEMERIS_TYPE,CLASSIFICATION_TYPE,NORAD_CAT_ID,ELEMENT_SET_NO,REV_AT_EPOCH,BSTAR,MEAN_MOTION_DOT,MEAN_MOTION_DDOT
QZS-6 (MICHIBIKI-6),2025-023A,2026-07-11T02:00:42.060096,1.00268136,.00018,0.0203,321.8187,169.2928,278.5424,0,U,62876,999,518,0,-.225E-5,0
ZHONGXING-10R,2025-036A,2026-07-11T02:06:26.510112,1.00274232,.0004149,0.0456,222.7036,284.3776,284.0176,0,U,63075,999,519,0,-.344E-5,0
TJS-15,2025-045A,2026-07-10T17:28:32.013120,1.00270936,.0003395,0.3048,85.6295,295.8901,263.6332,0,U,63157,999,499,0,-.256E-5,0
TIANLIAN 2-04,2025-062A,2026-07-11T01:57:49.836384,1.00269795,.0031569,4.3158,274.0957,9.2767,115.1073,0,U,63361,999,484,0,-.121E-5,0
TJS-16,2025-064A,2026-07-10T18:18:01.334016,1.00270903,.0002525,1.1560,81.3121,291.1995,351.2981,0,U,63397,999,462,0,-.97E-6,0
TJS-17,2025-073A,2026-07-10T16:27:38.875104,1.00270433,.0001049,1.1218,82.4934,304.9043,312.6331,0,U,63524,999,452,0,-.62E-6,0
TIANLIAN 2-05,2025-084A,2026-07-10T20:39:38.577888,1.00269920,.0002668,4.3938,279.5616,153.0411,186.4607,0,U,63662,999,461,0,.138E-5,0
TJS-19,2025-097A,2026-07-10T17:41:54.231936,1.00267946,.0003908,3.2484,317.8119,244.5030,133.0478,0,U,63924,999,438,0,-.264E-5,0
CHINASAT 3B,2025-106A,2026-07-11T04:42:38.776032,1.00272817,.0003808,0.0321,161.9311,340.8014,24.3515,0,U,64062,999,430,0,-.38E-6,0
SXM-10,2025-122A,2026-07-10T14:45:48.673152,1.00271837,.0001718,0.0176,38.6318,320.1463,35.0561,0,U,64290,999,391,0,-.7E-7,0
COSMOS 2589,2025-131A,2026-07-10T18:10:12.136224,1.00267949,.0001423,0.0546,99.6427,123.8203,75.7155,0,U,64467,999,379,0,-.281E-5,0
CHINASAT 9C,2025-132A,2026-07-11T02:01:12.013248,1.00270263,.000289,0.0181,278.5433,194.5941,298.3723,0,U,64470,999,438,0,-.239E-5,0
MTG-S1,2025-143A,2026-07-11T04:34:38.924256,1.00272782,.0003471,0.5869,344.1126,262.0795,111.1412,0,U,64723,999,365,0,0,0
DROR 1,2025-148A,2026-07-11T04:34:38.924256,1.00271380,.0002022,0.0516,266.8726,128.9773,317.9082,0,U,64784,999,353,0,-.27E-6,0
SHIYAN-29,2025-196A,2026-07-10T17:11:56.880384,1.00277725,.0013531,28.8461,18.2386,177.3892,86.2466,0,U,65486,999,311,0,-.279E-5,0
NUSANTARA LIMA (NUSANTARA 5),2025-205A,2026-07-10T05:35:06.745344,1.00270709,.00004928,0.0015,205.3939,336.5204,302.8780,0,U,65588,999,295,0,-.347E-5,0
TJS-20,2025-238A,2026-07-10T22:27:24.694272,1.00273666,.0004345,5.4184,299.4543,179.8059,208.8622,0,U,66142,999,257,0,.39E-6,0
CMS-03 (GSAT-7R),2025-249B,2026-07-11T03:59:38.663808,1.00271126,.0001482,0.0397,261.4120,177.1846,344.3655,0,U,66311,999,258,0,-.69E-6,0
VIASAT-3 F2,2025-261A,2026-07-11T05:02:09.719808,1.00270768,.0000881,0.0073,261.0252,324.9314,59.7376,0,U,66454,999,303,0,-.226E-5,0
SHIJIAN-28 (SJ-28),2025-277A,2026-07-11T00:25:34.037184,1.00269103,.0001133,4.4790,271.7545,23.3140,117.1048,0,U,66549,999,239,0,-.346E-5,0
TJS-22,2025-290A,2026-07-10T19:29:55.366368,1.00274935,.0002252,1.4722,286.8769,317.9106,42.9862,0,U,66990,999,226,0,.3E-7,0
TJS-23,2025-306A,2026-07-10T12:54:25.595136,1.00274379,.0004924,5.5355,297.3653,191.1204,169.0910,0,U,67226,999,212,0,.33E-6,0
FENGYUN 4C,2025-312A,2026-07-10T19:22:09.965856,1.00270390,.0000634,0.0407,180.6762,31.7782,139.8157,0,U,67246,999,201,0,-.314E-5,0
SHIJIAN-29A (SJ-29A),2025-315A,2026-07-10T15:39:48.261024,1.00278718,.0003814,3.4546,94.5528,34.2687,107.8378,0,U,67302,999,185,0,-.63E-6,0
SHIJIAN-29B (SJ-29B),2025-315C,2026-07-10T15:39:55.750176,1.00271939,.0004794,3.4536,94.5445,51.4228,90.7761,0,U,67403,999,192,0,-.62E-6,0
ELEKTRO-L 5,2026-028A,2026-07-10T23:40:07.316256,1.00272002,.0002026,0.2129,322.5277,176.4815,221.0039,0,U,67756,999,149,0,-.89E-6,0
JAM-E JAM 1,2026-028B,2026-07-11T01:35:38.675904,1.00271735,.000169,0.2146,310.8477,322.4902,73.5583,0,U,67757,999,135,0,.164E-5,0
ECHOSTAR 25,2026-045A,2026-07-10T21:38:18.117312,1.00271817,.0001548,0.0186,45.4718,63.5935,34.3292,0,U,68126,999,123,0,-.48E-6,0
TJS-24,2026-116A,2026-07-11T05:24:18.868896,1.00270863,.0000342,0.0673,96.3056,127.2586,236.9553,0,U,69235,999,47,0,-.224E-5,0
