QZS-6 (MICHIBIKI-6)     
1 62876U 25023A   26192.08382014 -.00000225  00000+0  00000+0 0  9995
2 62876   0.0203 321.8187 0001800 169.2928 278.5424  1.00268136  5185
ZHONGXING-10R           
1 63075U 25036A   26192.08780683 -.00000344  00000+0  00000+0 0  9997
2 63075   0.0456 222.7036 0004149 284.3776 284.0176  1.00274232  5199
TJS-15                  
1 63157U 25045A   26191.72814830 -.00000256  00000+0  00000+0 0  9992
2 63157   0.3048  85.6295 0003395 295.8901 263.6332  1.00270936  4993
TIANLIAN 2-04           
1 63361U 25062A   26192.08182681 -.00000121  00000+0  00000+0 0  9991
2 63361   4.3158 274.0957 0031569   9.2767 115.1073  1.00269795  4844
TJS-16                  
1 63397U 25064A   26191.76251544 -.00000097  00000+0  00000+0 0  9993
2 63397   1.1560  81.3121 0002525 291.1995 351.2981  1.00270903  4622
TJS-17                  
1 63524U 25073A   26191.68586661 -.00000062  00000+0  00000+0 0  9999
2 63524   1.1218  82.4934 0001049 304.9043 312.6331  1.00270433  4522
TIANLIAN 2-05           
1 63662U 25084A   26191.86086317  .00000138  00000+0  00000+0 0  9990
2 63662   4.3938 279.5616 0002668 153.0411 186.4607  1.00269920  4617
TJS-19                  
1 63924U 25097A   26191.73743324 -.00000264  00000+0  00000+0 0  9990
2 63924   3.2484 317.8119 0003908 244.5030 133.0478  1.00267946  4381
CHINASAT 3B             
1 64062U 25106A   26192.19628213 -.00000038  00000+0  00000+0 0  9994
2 64062   0.0321 161.9311 0003808 340.8014  24.3515  1.00272817  4302
SXM-10                  
1 64290U 25122A   26191.61514668 -.00000007  00000+0  00000+0 0  9995
2 64290   0.0176  38.6318 0001718 320.1463  35.0561  1.00271837  3914
COSMOS 2589             
1 64467U 25131A   26191.75708491 -.00000281  00000+0  00000+0 0  9999
2 64467   0.0546  99.6427 0001423 123.8203  75.7155  1.00267949  3797
CHINASAT 9C             
1 64470U 25132A   26192.08416682 -.00000239  00000+0  00000+0 0  9992
2 64470   0.0181 278.5433 0002890 194.5941 298.3723  1.00270263  4387
MTG-S1                  
1 64723U 25143A   26192.19072829  .00000000  00000+0  00000+0 0  9993
2 64723   0.5869 344.1126 0003471 262.0795 111.1412  1.00272782  3653
DROR 1                  
1 64784U 25148A   26192.19072829 -.00000027  00000+0  00000+0 0  9995
2 64784   0.0516 266.8726 0002022 128.9773 317.9082  1.00271380  3536
SHIYAN-29               
1 65486U 25196A   26191.71663056 -.00000279  00000+0  00000+0 0  9992
2 65486  28.8461  18.2386 0013531 177.3892  86.2466  1.00277725  3116
NUSANTARA LIMA (NUSANT*)
1 65588U 25205A   26191.23271696 -.00000347  00000+0  00000+0 0  9994
2 65588   0.0015 205.3939 0000492 336.5204 302.8780  1.00270709  2959
TJS-20                  
1 66142U 25238A   26191.93570248  .00000039  00000+0  00000+0 0  9996
2 66142   5.4184 299.4543 0004345 179.8059 208.8622  1.00273666  2577
CMS-03 (GSAT-7R)        
1 66311U 25249B   26192.16641972 -.00000069  00000+0  00000+0 0  9999
2 66311   0.0397 261.4120 0001482 177.1846 344.3655  1.00271126  2588
VIASAT-3 F2             
1 66454U 25261A   26192.20983472 -.00000226  00000+0  00000+0 0  9995
2 66454   0.0073 261.0252 0000881 324.9314  59.7376  1.00270768  3032
SHIJIAN-28 (SJ-28)      
1 66549U 25277A   26192.01775506 -.00000346  00000+0  00000+0 0  9996
2 66549   4.4790 271.7545 0001133  23.3140 117.1048  1.00269103  2396
TJS-22                  
1 66990U 25290A   26191.81244637  .00000003  00000+0  00000+0 0  9993
2 66990   1.4722 286.8769 0002252 317.9106  42.9862  1.00274935  2264
TJS-23                  
1 67226U 25306A   26191.53779624  .00000033  00000+0  00000+0 0  9995
2 67226   5.5355 297.3653 0004924 191.1204 169.0910  1.00274379  2124
FENGYUN 4C              
1 67246U 25312A   26191.80705979 -.00000314  00000+0  00000+0 0  9999
2 67246   0.0407 180.6762 0000634  31.7782 139.8157  1.00270390  2018
SHIJIAN-29A (SJ-29A)    
1 67302U 25315A   26191.65264191 -.00000063  00000+0  00000+0 0  9995
2 67302   3.4546  94.5528 0003814  34.2687 107.8378  1.00278718  1853
SHIJIAN-29B (SJ-29B)    
1 67403U 25315C   26191.65272859 -.00000062  00000+0  00000+0 0  9996
2 67403   3.4536  94.5445 0004794  51.4228  90.7761  1.00271939  1924
ELEKTRO-L 5             
1 67756U 26028A   26191.98619579 -.00000089  00000+0  00000+0 0  9998
2 67756   0.2129 322.5277 0002026 176.4815 221.0039  1.00272002  1492
JAM-E JAM 1             
1 67757U 26028B   26192.06641986  .00000164  00000+0  00000+0 0  9999
2 67757   0.2146 310.8477 0001690 322.4902  73.5583  1.00271735  1351
ECHOSTAR 25             
1 68126U 26045A   26191.90159858 -.00000048  00000+0  00000+0 0  9995
2 68126   0.0186  45.4718 0001548  63.5935  34.3292  1.00271817  1234
TJS-24                  
1 69235U 26116A   26192.22521839 -.00000224  00000+0  00000+0 0  9990
2 69235   0.0673  96.3056 0000342 127.2586 236.9553  1.00270863   473
